{"type": "FeatureCollection", "features": [ {"type": "Feature", "properties": {"norad_id": 34433, "name": "COSMOS 2251 DEB", "group": "cosmos-2251-debris", "lat": 32.864501847750546, "lon": -58.543321084504946, "alt_km": 904.2563634719318, "timestamp": "2025-12-25T14:48:25.166724+00:00", "meta": {"OBJECT_NAME": "COSMOS 2251 DEB", "OBJECT_ID": "1993-036SA", "EPOCH": "2025-12-25T02:12:36.614016", "MEAN_MOTION": 14.12907554, "ECCENTRICITY": 0.01528397, "INCLINATION": 74.0102, "RA_OF_ASC_NODE": 133.0614, "ARG_OF_PERICENTER": 268.5186, "MEAN_ANOMALY": 89.8442, "EPHEMERIS_TYPE": 0, "CLASSIFICATION_TYPE": "U", "NORAD_CAT_ID": 34433, "ELEMENT_SET_NO": 999, "REV_AT_EPOCH": 86124, "BSTAR": 0.0013759322, "MEAN_MOTION_DOT": 2.836e-05, "MEAN_MOTION_DDOT": 0}, "tle": {"line1": "1 34433U 93036SA  25359.09209044  .00002836  00000+0  13759-2 0  9995", "line2": "2 34433  74.0102 133.0614 0152839 268.5186  89.8442 14.12907554861249"}}, "geometry": {"type": "Point", "coordinates": [-58.543321084504946, 32.864501847750546]}}, {"type": "Feature", "properties": {"norad_id": 34434, "name": "COSMOS 2251 DEB", "group": "cosmos-2251-debris", "lat": 45.17146807513757, "lon": 4.927649538408756, "alt_km": 867.2969413603132, "timestamp": "2025-12-25T14:48:25.166734+00:00", "meta": {"OBJECT_NAME": "COSMOS 2251 DEB", "OBJECT_ID": "1993-036SB", "EPOCH": "2025-12-25T04:41:29.673312", "MEAN_MOTION": 13.89880874, "ECCENTRICITY": 0.02734782, "INCLINATION": 74.0626, "RA_OF_ASC_NODE": 348.9386, "ARG_OF_PERICENTER": 123.206, "MEAN_ANOMALY": 339.3299, "EPHEMERIS_TYPE": 0, "CLASSIFICATION_TYPE": "U", "NORAD_CAT_ID": 34434, "ELEMENT_SET_NO": 999, "REV_AT_EPOCH": 84139, "BSTAR": 0.0020112011, "MEAN_MOTION_DOT": 3.324e-05, "MEAN_MOTION_DDOT": 0}, "tle": {"line1": "1 34434U 93036SB  25359.19548233  .00003324  00000+0  20112-2 0  9997", "line2": "2 34434  74.0626 348.9386 0273478 123.2060 339.3299 13.89880874841390"}}, "geometry": {"type": "Point", "coordinates": [4.927649538408756, 45.17146807513757]}}, {"type": "Feature", "properties": {"norad_id": 34446, "name": "COSMOS 2251 DEB", "group": "cosmos-2251-debris", "lat": 62.171136335014936, "lon": -179.6913273580243, "alt_km": 700.5838583418099, "timestamp": "2025-12-25T14:48:25.166743+00:00", "meta": {"OBJECT_NAME": "COSMOS 2251 DEB", "OBJECT_ID": "1993-036SP", "EPOCH": "2025-12-24T21:43:11.582688", "MEAN_MOTION": 14.49365513, "ECCENTRICITY": 0.00505396, "INCLINATION": 74.0415, "RA_OF_ASC_NODE": 34.4678, "ARG_OF_PERICENTER": 169.5596, "MEAN_ANOMALY": 190.6627, "EPHEMERIS_TYPE": 0, "CLASSIFICATION_TYPE": "U", "NORAD_CAT_ID": 34446, "ELEMENT_SET_NO": 999, "REV_AT_EPOCH": 88870, "BSTAR": 0.00011865833, "MEAN_MOTION_DOT": 4.32e-06, "MEAN_MOTION_DDOT": 0}, "tle": {"line1": "1 34446U 93036SP  25358.90499517  .00000432  00000+0  11866-3 0  9992", "line2": "2 34446  74.0415  34.4678 0050539 169.5596 190.6627 14.49365513888702"}}, "geometry": {"type": "Point", "coordinates": [-179.6913273580243, 62.171136335014936]}}, {"type": "Feature", "properties": {"norad_id": 34449, "name": "COSMOS 2251 DEB", "group": "cosmos-2251-debris", "lat": -42.789863156398354, "lon": -120.05540902577972, "alt_km": 599.9450725774395, "timestamp": "2025-12-25T14:48:25.166752+00:00", "meta": {"OBJECT_NAME": "COSMOS 2251 DEB", "OBJECT_ID": "1993-036SS", "EPOCH": "2025-12-24T14:24:05.743008", "MEAN_MOTION": 14.95490862, "ECCENTRICITY": 0.00226973, "INCLINATION": 74.0318, "RA_OF_ASC_NODE": 46.626, "ARG_OF_PERICENTER": 81.975, "MEAN_ANOMALY": 70.2612, "EPHEMERIS_TYPE": 0, "CLASSIFICATION_TYPE": "U", "NORAD_CAT_ID": 34449, "ELEMENT_SET_NO": 999, "REV_AT_EPOCH": 88870, "BSTAR": 0.0024584939, "MEAN_MOTION_DOT": 0.00027436, "MEAN_MOTION_DDOT": 0}, "tle": {"line1": "1 34449U 93036SS  25358.60006647  .00027436  00000+0  24585-2 0  9994", "line2": "2 34449  74.0318  46.6260 0022697  81.9750  70.2612 14.95490862888706"}}, "geometry": {"type": "Point", "coordinates": [-120.05540902577972, -42.789863156398354]}}, {"type": "Feature", "properties": {"norad_id": 34451, "name": "COSMOS 2251 DEB", "group": "cosmos-2251-debris", "lat": -46.32939944821499, "lon": -100.68253879749646, "alt_km": 599.904990421629, "timestamp": "2025-12-25T14:48:25.166761+00:00", "meta": {"OBJECT_NAME": "COSMOS 2251 DEB", "OBJECT_ID": "1993-036SU", "EPOCH": "2025-12-24T13:43:09.918048", "MEAN_MOTION": 14.96220659, "ECCENTRICITY": 0.00240246, "INCLINATION": 74.0454, "RA_OF_ASC_NODE": 63.9892, "ARG_OF_PERICENTER": 76.6321, "MEAN_ANOMALY": 283.754, "EPHEMERIS_TYPE": 0, "CLASSIFICATION_TYPE": "U", "NORAD_CAT_ID": 34451, "ELEMENT_SET_NO": 999, "REV_AT_EPOCH": 88812, "BSTAR": 0.0026240583, "MEAN_MOTION_DOT": 0.00029867, "MEAN_MOTION_DDOT": 0}, "tle": {"line1": "1 34451U 93036SU  25358.57164257  .00029867  00000+0  26241-2 0  9996", "line2": "2 34451  74.0454  63.9892 0024024  76.6321 283.7540 14.96220659888127"}}, "geometry": {"type": "Point", "coordinates": [-100.68253879749646, -46.32939944821499]}}, {"type": "Feature", "properties": {"norad_id": 34452, "name": "COSMOS 2251 DEB", "group": "cosmos-2251-debris", "lat": -22.648690401072628, "lon": 149.29895217649934, "alt_km": 547.7514649845762, "timestamp": "2025-12-25T14:48:25.166770+00:00", "meta": {"OBJECT_NAME": "COSMOS 2251 DEB", "OBJECT_ID": "1993-036SV", "EPOCH": "2025-12-24T16:45:03.093408", "MEAN_MOTION": 15.12007528, "ECCENTRICITY": 0.00642345, "INCLINATION": 74.0321, "RA_OF_ASC_NODE": 158.0634, "ARG_OF_PERICENTER": 231.7157, "MEAN_ANOMALY": 143.8248, "EPHEMERIS_TYPE": 0, "CLASSIFICATION_TYPE": "U", "NORAD_CAT_ID": 34452, "ELEMENT_SET_NO": 999, "REV_AT_EPOCH": 90843, "BSTAR": 0.00099409087, "MEAN_MOTION_DOT": 0.00017951, "MEAN_MOTION_DDOT": 0}, "tle": {"line1": "1 34452U 93036SV  25358.69795247  .00017951  00000+0  99409-3 0  9997", "line2": "2 34452  74.0321 158.0634 0064234 231.7157 143.8248 15.12007528908434"}}, "geometry": {"type": "Point", "coordinates": [149.29895217649934, -22.648690401072628]}}, {"type": "Feature", "properties": {"norad_id": 34454, "name": "COSMOS 2251 DEB", "group": "cosmos-2251-debris", "lat": -44.901942224224776, "lon": 90.47283867291104, "alt_km": 767.1792128580864, "timestamp": "2025-12-25T14:48:25.166779+00:00", "meta": {"OBJECT_NAME": "COSMOS 2251 DEB", "OBJECT_ID": "1993-036SX", "EPOCH": "2025-12-24T19:23:44.422656", "MEAN_MOTION": 14.38826373, "ECCENTRICITY": 0.00359643, "INCLINATION": 74.0584, "RA_OF_ASC_NODE": 255.4119, "ARG_OF_PERICENTER": 315.5668, "MEAN_ANOMALY": 44.2602, "EPHEMERIS_TYPE": 0, "CLASSIFICATION_TYPE": "U", "NORAD_CAT_ID": 34454, "ELEMENT_SET_NO": 999, "REV_AT_EPOCH": 88241, "BSTAR": 0.00020848352, "MEAN_MOTION_DOT": 6.2e-06, "MEAN_MOTION_DDOT": 0}, "tle": {"line1": "1 34454U 93036SX  25358.80815304  .00000620  00000+0  20848-3 0  9995", "line2": "2 34454  74.0584 255.4119 0035964 315.5668  44.2602 14.38826373882414"}}, "geometry": {"type": "Point", "coordinates": [90.47283867291104, -44.901942224224776]}}, {"type": "Feature", "properties": {"norad_id": 34459, "name": "COSMOS 2251 DEB", "group": "cosmos-2251-debris", "lat": -64.51275696585404, "lon": 88.5766602001356, "alt_km": 805.434974993278, "timestamp": "2025-12-25T14:48:25.166788+00:00", "meta": {"OBJECT_NAME": "COSMOS 2251 DEB", "OBJECT_ID": "1993-036TC", "EPOCH": "2025-12-24T23:53:11.652000", "MEAN_MOTION": 14.00517441, "ECCENTRICITY": 0.01921323, "INCLINATION": 74.0779, "RA_OF_ASC_NODE": 232.8663, "ARG_OF_PERICENTER": 299.8727, "MEAN_ANOMALY": 58.3436, "EPHEMERIS_TYPE": 0, "CLASSIFICATION_TYPE": "U", "NORAD_CAT_ID": 34459, "ELEMENT_SET_NO": 999, "REV_AT_EPOCH": 85883, "BSTAR": 0.00035903451, "MEAN_MOTION_DOT": 6e-06, "MEAN_MOTION_DDOT": 0}, "tle": {"line1": "1 34459U 93036TC  25358.99527375  .00000600  00000+0  35903-3 0  9994", "line2": "2 34459  74.0779 232.8663 0192132 299.8727  58.3436 14.00517441858831"}}, "geometry": {"type": "Point", "coordinates": [88.5766602001356, -64.51275696585404]}}, {"type": "Feature", "properties": {"norad_id": 34464, "name": "COSMOS 2251 DEB", "group": "cosmos-2251-debris", "lat": 6.098407685990861, "lon": -130.88616059316263, "alt_km": 476.1346047659699, "timestamp": "2025-12-25T14:48:25.166798+00:00", "meta": {"OBJECT_NAME": "COSMOS 2251 DEB", "OBJECT_ID": "1993-036TH", "EPOCH": "2025-12-24T05:04:02.299008", "MEAN_MOTION": 15.28657162, "ECCENTRICITY": 0.00141041, "INCLINATION": 73.9883, "RA_OF_ASC_NODE": 53.8659, "ARG_OF_PERICENTER": 236.6213, "MEAN_ANOMALY": 123.364, "EPHEMERIS_TYPE": 0, "CLASSIFICATION_TYPE": "U", "NORAD_CAT_ID": 34464, "ELEMENT_SET_NO": 999, "REV_AT_EPOCH": 90015, "BSTAR": 0.002998465, "MEAN_MOTION_DOT": 0.00084749, "MEAN_MOTION_DDOT": 0}, "tle": {"line1": "1 34464U 93036TH  25358.21113772  .00084749  00000+0  29985-2 0  9995", "line2": "2 34464  73.9883  53.8659 0014104 236.6213 123.3640 15.28657162900157"}}, "geometry": {"type": "Point", "coordinates": [-130.88616059316263, 6.098407685990861]}}, {"type": "Feature", "properties": {"norad_id": 34468, "name": "COSMOS 2251 DEB", "group": "cosmos-2251-debris", "lat": -71.78231042280451, "lon": 32.499187003789764, "alt_km": 700.6924387322733, "timestamp": "2025-12-25T14:48:25.166807+00:00", "meta": {"OBJECT_NAME": "COSMOS 2251 DEB", "OBJECT_ID": "1993-036TM", "EPOCH": "2025-12-25T00:15:14.559552", "MEAN_MOTION": 14.47656894, "ECCENTRICITY": 0.00762519, "INCLINATION": 74.0132, "RA_OF_ASC_NODE": 94.2152, "ARG_OF_PERICENTER": 236.6703, "MEAN_ANOMALY": 122.7141, "EPHEMERIS_TYPE": 0, "CLASSIFICATION_TYPE": "U", "NORAD_CAT_ID": 34468, "ELEMENT_SET_NO": 999, "REV_AT_EPOCH": 88639, "BSTAR": 0.0003620753, "MEAN_MOTION_DOT": 1.355e-05, "MEAN_MOTION_DDOT": 0}, "tle": {"line1": "1 34468U 93036TM  25359.01058518  .00001355  00000+0  36208-3 0  9993", "line2": "2 34468  74.0132  94.2152 0076251 236.6703 122.7141 14.47656894886391"}}, "geometry": {"type": "Point", "coordinates": [32.499187003789764, -71.78231042280451]}}]}